     2              NAVIGATION DATA                         RINEX VERSION / TYPE
CCRINEXN V1.6.0 UX  CDDIS               28-AUG-04 02:38     PGM / RUN BY / DATE 
IGS BROADCAST EPHEMERIS FILE                                COMMENT             
    0.9313D-08  0.2235D-07 -0.5960D-07 -0.1192D-06          ION ALPHA           
    0.9216D+05  0.1147D+06 -0.1311D+06 -0.5898D+06          ION BETA            
    0.000000000000D+00 0.976996261670D-14   589824     1285 DELTA-UTC: A0,A1,T,W
    13                                                      LEAP SECONDS        
                                                            END OF HEADER       
11 04  8 27  2  0  0.0 0.143974088132D-03 0.306954461848D-11 0.000000000000D+00
    0.830000000000D+02 0.370625000000D+02 0.569237996762D-08 0.749720394395D+00
    0.192224979401D-05 0.314272346441D-02 0.962242484093D-05 0.515368556023D+04
    0.439200000000D+06 0.204890966415D-07-0.841283731850D+00-0.391155481339D-07
    0.905445120041D+00 0.158437500000D+03 0.586230261129D-01-0.850678291308D-08
   -0.773603652269D-09 0.100000000000D+01 0.128500000000D+04 0.000000000000D+00
    0.280000000000D+01 0.000000000000D+00-0.116415321827D-07 0.339000000000D+03
    0.435168000000D+06 0.400000000000D+01 0.000000000000D+00 0.000000000000D+00
13 04  8 27  2  0  0.0-0.232565216720D-04 0.795807864051D-12 0.000000000000D+00
    0.222000000000D+03-0.633750000000D+02 0.407766985132D-08-0.300043848083D+01
   -0.319629907608D-05 0.234782497864D-02 0.406056642532D-06 0.515361213684D+04
    0.439200000000D+06-0.316649675369D-07 0.137223903922D+01 0.800937414169D-07
    0.984381604862D+00 0.384843750000D+03 0.941922177742D+00-0.818676958324D-08
   -0.464305054455D-11 0.100000000000D+01 0.128500000000D+04 0.000000000000D+00
    0.200000000000D+01 0.000000000000D+00-0.111758708954D-07 0.222000000000D+03
    0.432018000000D+06 0.400000000000D+01 0.000000000000D+00 0.000000000000D+00
14 04  8 27  2  0  0.0-0.259676016867D-04-0.795807864051D-12 0.000000000000D+00
    0.232000000000D+03-0.522500000000D+02 0.413802950840D-08 0.210700558449D+01
   -0.256486237049D-05 0.133933464531D-02 0.137835741043D-05 0.515363516808D+04
    0.439200000000D+06 0.391155481339D-07 0.136249271324D+01-0.558793544769D-07
    0.978795591154D+00 0.361312500000D+03-0.175286174973D+01-0.818355516364D-08
    0.567880797372D-10 0.100000000000D+01 0.128500000000D+04 0.000000000000D+00
    0.000000000000D+00 0.000000000000D+00-0.102445483208D-07 0.488000000000D+03
    0.435570000000D+06 0.000000000000D+00 0.000000000000D+00 0.000000000000D+00
15 04  8 27  2  0  0.0 0.311997253448D-03 0.511590769747D-11 0.000000000000D+00
    0.860000000000D+02 0.526562500000D+02 0.417624538596D-08-0.558859941617D-01
    0.263564288616D-05 0.875150028151D-02 0.104252249003D-04 0.515364935875D+04
    0.439200000000D+06 0.186264514923D-08-0.656412961617D+00-0.163912773132D-06
    0.965465740552D+00 0.184281250000D+03 0.230561166038D+01-0.784532678935D-08
   -0.556808907612D-09 0.100000000000D+01 0.128500000000D+04 0.000000000000D+00
    0.280000000000D+01 0.000000000000D+00-0.279396772385D-08 0.860000000000D+02
    0.432018000000D+06 0.400000000000D+01 0.000000000000D+00 0.000000000000D+00
16 04  8 27  2  0  0.0 0.678747892380D-05-0.568434188608D-12 0.000000000000D+00
    0.900000000000D+01 0.662500000000D+01 0.474555481426D-08-0.108561350981D+01
    0.316649675369D-06 0.248422590084D-02 0.967085361481D-05 0.515359061432D+04
    0.439200000000D+06-0.875443220139D-07-0.282668860025D+01 0.372529029846D-08
    0.961580661694D+00 0.198312500000D+03-0.134073870594D+01-0.793675916931D-08
    0.643241079287D-09 0.100000000000D+01 0.128500000000D+04 0.000000000000D+00
    0.200000000000D+01 0.000000000000D+00-0.977888703346D-08 0.265000000000D+03
    0.432018000000D+06 0.400000000000D+01 0.000000000000D+00 0.000000000000D+00
17 04  8 27  2  0  0.0-0.136417802423D-03-0.954969436862D-11 0.000000000000D+00
    0.192000000000D+03 0.579687500000D+02 0.420946122404D-08 0.754123419399D+00
    0.332668423653D-05 0.172976439353D-01 0.105053186417D-04 0.515365965462D+04
    0.439200000000D+06-0.670552253723D-07-0.614582530755D+00 0.387430191040D-06
    0.967467164628D+00 0.180843750000D+03-0.274300031613D+01-0.785175569007D-08
   -0.709315273184D-09 0.100000000000D+01 0.128500000000D+04 0.000000000000D+00
    0.280000000000D+01 0.000000000000D+00-0.139698386192D-08 0.448000000000D+03
    0.432018000000D+06 0.400000000000D+01 0.000000000000D+00 0.000000000000D+00
19 04  8 27  2  0  0.0-0.961916521192D-05 0.193267624127D-11 0.000000000000D+00
    0.147000000000D+03 0.431250000000D+01 0.509449792057D-08-0.230546814227D+01
    0.374391674995D-06 0.353272771463D-02 0.586733222008D-05 0.515357694054D+04
    0.439200000000D+06 0.949949026108D-07-0.172536385059D+01 0.104308128357D-06
    0.959817599638D+00 0.265093750000D+03-0.193324648313D+01-0.811605235187D-08
   -0.264653881039D-09 0.100000000000D+01 0.128500000000D+04 0.000000000000D+00
    0.280000000000D+01 0.000000000000D+00-0.139698386192D-07 0.403000000000D+03
    0.432018000000D+06 0.400000000000D+01 0.000000000000D+00 0.000000000000D+00
20 04  8 27  2  0  0.0-0.129238236696D-03 0.341060513165D-11 0.000000000000D+00
    0.213000000000D+03 0.135843750000D+03 0.423267630796D-08-0.205261758772D+01
    0.695697963238D-05 0.231903127860D-02 0.525452196598D-05 0.515359788513D+04
    0.439200000000D+06 0.912696123123D-07 0.307863040326D+00-0.745058059692D-08
    0.963652133214D+00 0.282531250000D+03 0.161899224777D+01-0.811748098281D-08
    0.108933108930D-09 0.100000000000D+01 0.128500000000D+04 0.000000000000D+00
    0.000000000000D+00 0.000000000000D+00-0.698491930962D-08 0.469000000000D+03
    0.432000000000D+06 0.000000000000D+00 0.000000000000D+00 0.000000000000D+00
21 04  8 27  2  0  0.0 0.787330791354D-04 0.341060513165D-12 0.000000000000D+00
    0.520000000000D+02 0.424687500000D+02 0.450233039728D-08-0.749970249100D-01
    0.196509063244D-05 0.910018489230D-02 0.995025038719D-05 0.515367932892D+04
    0.439200000000D+06 0.158324837685D-06-0.685288498022D+00 0.167638063431D-07
    0.952003574862D+00 0.184562500000D+03 0.306876497673D+01-0.804319217410D-08
   -0.629311927654D-09 0.000000000000D+00 0.128500000000D+04 0.000000000000D+00
    0.280000000000D+01 0.000000000000D+00-0.121071934700D-07 0.308000000000D+03
    0.432000000000D+06 0.400000000000D+01 0.000000000000D+00 0.000000000000D+00
22 04  8 27  2  0  0.0 0.159102492034D-04-0.113686837722D-12 0.000000000000D+00
    0.170000000000D+02 0.118531250000D+03 0.421303263258D-08 0.296509929544D+01
    0.621378421783D-05 0.486917630769D-02 0.488571822643D-05 0.515367893219D+04
    0.439200000000D+06-0.223517417908D-07 0.369828104254D+00 0.447034835815D-07
    0.961071302877D+00 0.286031250000D+03-0.149116459308D+01-0.794247369305D-08
    0.145363197818D-09 0.000000000000D+00 0.128500000000D+04 0.000000000000D+00
    0.280000000000D+01 0.000000000000D+00-0.181607902050D-07 0.273000000000D+03
    0.432780000000D+06 0.400000000000D+01 0.000000000000D+00 0.000000000000D+00
23 04  8 27  2  0  0.0 0.157248228788D-03 0.886757334229D-11 0.000000000000D+00
    0.165000000000D+03-0.609062500000D+02 0.460447750926D-08 0.273714718236D+01
   -0.310130417347D-05 0.378264137544D-02 0.309199094772D-06 0.515377196503D+04
    0.439200000000D+06-0.372529029846D-07 0.136004222160D+01 0.428408384323D-07
    0.960895054896D+00 0.373687500000D+03 0.211513603991D+01-0.842606526515D-08
   -0.639312344211D-10 0.100000000000D+01 0.128500000000D+04 0.000000000000D+00
    0.000000000000D+00 0.000000000000D+00-0.214204192162D-07 0.165000000000D+03
    0.432660000000D+06 0.000000000000D+00 0.000000000000D+00 0.000000000000D+00
24 04  8 27  2  0  0.0 0.527300871909D-04 0.295585778076D-11 0.000000000000D+00
    0.640000000000D+02 0.529375000000D+02 0.412802902972D-08-0.703084602410D-01
    0.285543501377D-05 0.950772408396D-02 0.114068388939D-04 0.515370027924D+04
    0.439200000000D+06-0.217929482460D-06-0.681843151858D+00-0.372529029846D-07
    0.968688647096D+00 0.167343750000D+03-0.139006697524D+01-0.784746934102D-08
   -0.616811379750D-09 0.100000000000D+01 0.128500000000D+04 0.000000000000D+00
    0.280000000000D+01 0.000000000000D+00-0.139698386192D-08 0.320000000000D+03
    0.432018000000D+06 0.400000000000D+01 0.000000000000D+00 0.000000000000D+00
25 04  8 27  2  0  0.0 0.742711126804D-04 0.795807864051D-12 0.000000000000D+00
    0.155000000000D+03-0.127312500000D+03 0.470805325217D-08 0.517467489409D+00
   -0.684894621372D-05 0.113078998402D-01 0.866875052452D-05 0.515377599526D+04
    0.439200000000D+06-0.139698386192D-06 0.232428631437D+01-0.104308128357D-06
    0.945945097130D+00 0.202375000000D+03-0.155844721501D+01-0.832427531091D-08
    0.257153568621D-10 0.100000000000D+01 0.128500000000D+04 0.000000000000D+00
    0.100000000000D+01 0.000000000000D+00-0.745058059692D-08 0.411000000000D+03
    0.432000000000D+06 0.000000000000D+00 0.000000000000D+00 0.000000000000D+00
26 04  8 27  2  0  0.0 0.205784104765D-03 0.121644916362D-10 0.000000000000D+00
    0.208000000000D+03-0.375312500000D+02 0.421946147179D-08 0.160358107289D+01
   -0.213086605072D-05 0.155719465111D-01 0.948086380959D-06 0.515369465256D+04
    0.439200000000D+06-0.176951289177D-06 0.137467699220D+01 0.949949026108D-07
    0.982705048078D+00 0.376281250000D+03 0.629098585556D+00-0.830713173967D-08
   -0.139648674071D-09 0.100000000000D+01 0.128500000000D+04 0.000000000000D+00
    0.200000000000D+01 0.000000000000D+00-0.651925802231D-08 0.208000000000D+03
    0.432018000000D+06 0.400000000000D+01 0.000000000000D+00 0.000000000000D+00
